255P/Levy,e,13.4118,275.6581,186.0140,2.942236,0.1952935,0.71157053,44.4676,04/23.0/2023,2000,g 14.1,4.0
# From MPEC 2023-HD1
256P/LINEAR,e,27.6196,81.3290,124.1899,4.639683,0.0986215,0.41799621,4.1207,04/23.0/2023,2000,g 14.5,4.0
# From MPEC 2023-A50
257P/Catalina,e,20.2197,207.7146,117.7727,3.764707,0.1349296,0.42985590,128.7896,04/23.0/2023,2000,g 11.5,4.0
# From MPEC 2021-U31
258P/PANSTARRS,e,6.7475,126.2347,25.7202,4.393415,0.1070288,0.20853236,111.2797,04/23.0/2023,2000,g 13.0,4.0
# From MPC106349
259P/Garradd,e,15.8973,51.4322,257.5268,2.729147,0.2186068,0.33886839,95.9362,04/23.0/2023,2000,g 15.5,4.0
# From MPEC 2022-O01
260P/McNaught,e,15.0543,349.3337,18.4559,3.623365,0.1429012,0.60931651,188.6356,04/23.0/2023,2000,g 13.5,4.0
# From MPEC 2021-J28
261P/Larson,e,6.0718,291.1002,67.2861,3.490534,0.1511354,0.42327463,212.0599,04/23.0/2023,2000,g 14.0,4.0
# From MPC 82322
262P/McNaught-Russell,e,29.2949,217.8627,171.0651,6.871197,0.0547212,0.81633803,207.3349,04/23.0/2023,2000,g 13.5,4.0
# From MPEC 2023-HD1
263P/Gibbs,e,11.5216,105.5074,35.0482,3.041881,0.1857764,0.59357194,15.3105,04/23.0/2023,2000,g 17.3,4.0
# From MPC114608
264P/Larsen,e,25.6930,219.9246,346.6240,3.881794,0.1288710,0.37686133,175.5095,04/23.0/2023,2000,g 13.0,4.0
# From MPC 79870
265P/LINEAR,e,14.3603,342.9266,33.4995,4.257120,0.1122097,0.64757929,90.0802,04/23.0/2023,2000,g 14.5,4.0
# From MPEC 2021-F20
266P/Christensen,e,3.4269,4.9873,97.6718,3.530978,0.1485462,0.34008712,163.1779,04/23.0/2023,2000,g 14.7,4.0
# From MPC114608
267P/LONEOS,e,6.1441,228.5653,114.2475,3.210359,0.1713459,0.61434346,296.9834,04/23.0/2023,2000,g 19.5,4.0
# From MPC 92277
268P/Bernardi,e,15.6767,126.1685,359.8310,4.591391,0.1001815,0.47670595,299.3228,04/23.0/2023,2000,g 14.0,4.0
# From MPC104795
269P/Jedicke,e,7.0820,241.7542,225.6798,7.067044,0.0524623,0.43188538,164.0032,04/23.0/2023,2000,g 10.0,4.0
# From MPC 88332
270P/Gehrels,e,2.9247,223.0413,209.7696,6.657269,0.0573799,0.46928195,206.6429,04/23.0/2023,2000,g  8.0,4.0
# From MPC 92277
271P/van Houten-Lemmon,e,6.8716,9.3133,36.4428,7.035263,0.0528182,0.39586391,188.2442,04/23.0/2023,2000,g 11.0,4.0
# From MPEC 2023-D41
272P/NEAT,e,18.0729,109.4605,27.8936,4.461873,0.1045751,0.45493075,29.2780,04/23.0/2023,2000,g 16.0,2.0
# From MPC 82723
273P/Pons-Gambart,e,136.6450,320.3909,20.2838,31.98489,0.0054486,0.97441069,0.0000,12/22.1071/2012,2000,g 11.5,4.0
# From MPEC 2023-HD1
274P/Tombaugh-Tenagra,e,15.8160,81.3266,38.4743,4.377549,0.1076112,0.43966234,40.8405,04/23.0/2023,2000,g 13.9,4.0
# From MPC 81862
275P/Hermann,e,21.2676,348.7515,173.9369,5.781440,0.0709006,0.71304365,268.8506,04/23.0/2023,2000,g 17.0,4.0
# From MPEC 2023-A50
276P/Vorobjov,e,14.8118,211.3430,199.4627,5.327080,0.0801623,0.26821996,311.9425,04/23.0/2023,2000,g 11.5,4.0
# From MPEC 2021-F20
277P/LINEAR,e,16.7804,276.2966,152.3457,3.853527,0.1302916,0.50622362,109.9029,04/23.0/2023,2000,g 15.1,4.0
# From MPEC 2021-S45
278P/McNaught,e,6.6951,15.3743,237.5470,3.680375,0.1395937,0.43730867,133.0826,04/23.0/2023,2000,g 14.0,4.0
# From MPEC 2022-K19
279P/LaSagra,e,5.0520,346.2332,5.8526,3.574468,0.1458435,0.39903858,0.5008,04/23.0/2023,2000,g 14.0,4.0
# From MPEC 2023-G31
280P/Larsen,e,11.7721,131.3839,104.7419,4.530090,0.1022219,0.41719763,349.3954,04/23.0/2023,2000,g 12.5,4.0
# From MPEC 2023-D41
281P/MOSS,e,4.7180,87.1776,26.6515,4.878643,0.0914651,0.17303407,7.3634,04/23.0/2023,2000,g 11.0,4.0
# From MPC133426
282P/,e,5.8118,9.2946,217.6065,4.237868,0.1129751,0.18797547,61.6417,04/23.0/2023,2000,g 13.5,2.0
# From MPEC 2022-K19
283P/Spacewatch,e,14.4560,161.1260,22.2089,4.135047,0.1172150,0.48440755,69.4114,04/23.0/2023,2000,g 16.0,2.0
# From MPEC 2023-D41
284P/McNaught,e,11.8606,144.2647,202.4412,3.676372,0.1398218,0.37527742,82.1389,04/23.0/2023,2000,g 13.0,4.0
# From MPEC 2023-B57
285P/LINEAR,e,25.0378,185.5065,178.4068,4.509624,0.1029185,0.61875639,10.3694,04/23.0/2023,2000,g 15.0,4.0
# From MPEC 2022-X67
286P/Christensen,e,17.0426,283.8374,24.9100,4.113766,0.1181258,0.42639682,40.8048,04/23.0/2023,2000,g 14.0,4.0
# From MPEC 2023-A50
287P/Christensen,e,16.3217,139.0428,189.1259,4.163594,0.1160116,0.27126045,351.4064,04/23.0/2023,2000,g 13.5,4.0
# From MPC133426
288P/,e,3.2383,83.1233,280.2090,3.048190,0.1852000,0.20046491,77.2962,04/23.0/2023,2000,g 16.0,2.0
# From MPEC 2023-HD1
289P/Blanpain,e,5.8995,68.8882,9.8413,3.045275,0.1854660,0.68612794,226.0111,04/23.0/2023,2000,g 19.7,4.0
# From MPC 95214
290P/Jager,e,20.0303,302.6650,181.8427,6.217368,0.0635761,0.62728697,214.7665,04/23.0/2023,2000,g 10.5,4.0
# From MPEC 2023-HD1
291P/NEAT,e,6.3084,237.6584,173.5269,4.539053,0.1019193,0.43484699,358.8669,04/23.0/2023,2000,g 13.9,4.0
# From MPEC 2022-K19
292P/Li,e,24.2978,90.9186,319.5492,6.101244,0.0653998,0.58971459,220.0033,04/23.0/2023,2000,g 12.5,4.0
# From MPEC 2022-L66
293P/Spacewatch,e,9.0607,78.3990,40.9378,3.640505,0.1418932,0.41856172,121.2907,04/23.0/2023,2000,g 14.5,4.0
# From MPEC 2020-SI8
294P/LINEAR,e,17.7859,310.7862,236.6437,3.186644,0.1732622,0.60350074,214.3917,04/23.0/2023,2000,g 15.5,4.0
# From MPEC 2022-K19
295P/LINEAR,e,21.0745,7.4305,72.9009,5.304433,0.0806762,0.61718693,264.2339,04/23.0/2023,2000,g 12.0,4.0
# From MPEC 2021-N06
296P/Garradd,e,25.2533,263.5460,349.9712,3.491346,0.1510827,0.47899416,143.1735,04/23.0/2023,2000,g 14.0,4.0
# From MPC102956
297P/Beshore,e,10.3146,95.9666,135.5384,3.469579,0.1525067,0.32116433,124.1452,04/23.0/2023,2000,g 15.0,4.0
# From MPC114609
298P/Christensen,e,7.8706,52.8177,100.6167,3.589946,0.1449013,0.38625014,138.9896,04/23.0/2023,2000,g 15.0,4.0
# From MPEC 2023-HD1
299P/Catalina-PANSTARRS,e,10.4672,271.5976,323.7418,4.388771,0.1071987,0.28092709,319.9419,04/23.0/2023,2000,g 13.1,4.0
# From MPEC 2023-HD1
300P/Catalina,e,5.6740,95.6240,222.9533,2.698602,0.2223288,0.69166581,2.6425,04/23.0/2023,2000,g 17.1,4.0
# From MPC 89014
301P/LINEAR-NEAT,e,10.3368,351.1666,193.5322,5.741475,0.0716422,0.58555316,227.0862,04/23.0/2023,2000,g 13.0,4.0
# From MPEC 2023-HD1
302P/Lemmon-PANSTARRS,e,6.0336,121.7277,208.5055,4.272599,0.1116004,0.23018931,283.4767,04/23.0/2023,2000,g 13.7,4.0
# From MPC 92278
303P/NEAT,e,7.0193,347.9614,356.9967,5.043368,0.0870208,0.51084207,270.0726,04/23.0/2023,2000,g 13.5,4.0
# From MPEC 2022-K19
304P/Ory,e,2.6075,58.9077,335.2705,3.150698,0.1762357,0.60096155,173.2327,04/23.0/2023,2000,g 16.5,4.0
# From MPC101100
305P/Skiff,e,11.6689,240.1030,147.3792,4.639314,0.0986333,0.69399979,303.3751,04/23.0/2023,2000,g 18.0,4.0
# From MPC 92278
306P/LINEAR,e,8.3077,341.3722,0.8906,3.124248,0.1784785,0.59306017,211.6310,04/23.0/2023,2000,g 19.0,4.0
# From MPC 92278
307P/LINEAR,e,4.4350,158.1588,222.1780,5.789236,0.0707574,0.67555316,215.0757,04/23.0/2023,2000,g 15.0,4.0
# From MPEC 2022-C56
308P/Lagerkvist-Carsenty,e,4.8548,63.0384,333.6875,6.599702,0.0581323,0.36464569,168.7635,04/23.0/2023,2000,g 13.0,2.0
# From MPC 94284
309P/LINEAR,e,17.0240,10.1435,49.9450,4.373368,0.1077656,0.61824501,323.2437,04/23.0/2023,2000,g 15.0,4.0
# From MPEC 2022-QD9
310P/Hill,e,13.1274,8.9217,31.6916,4.185102,0.1151185,0.42264948,338.8241,04/23.0/2023,2000,g 13.5,4.0
# From MPEC 2021-BE3
311P/PANSTARRS,e,4.9698,279.2094,144.4651,2.188355,0.3044580,0.11591666,282.5076,04/23.0/2023,2000,g 17.0,4.0
# From MPEC 2021-BE3
312P/NEAT,e,19.7615,144.6702,207.6675,3.469946,0.1524825,0.42760597,143.3054,04/23.0/2023,2000,g 16.0,4.0
# From MPEC 2021-S45
313P/Gibbs,e,10.9787,105.9491,254.8766,3.164186,0.1751100,0.23490196,192.9371,04/23.0/2023,2000,g 15.0,4.0
# From MPC105243
314P/Montani,e,3.9870,267.6075,213.9055,7.256486,0.0504214,0.41698969,120.4047,04/23.0/2023,2000,g  9.5,4.0
# From MPEC 2021-N06
315P/LONEOS,e,17.7343,68.7533,65.7517,4.939820,0.0897713,0.52111831,210.0917,04/23.0/2023,2000,g 11.0,4.0
# From MPC 92279
316P/LONEOS-Christensen,e,9.8306,246.1820,191.4034,4.390850,0.1071226,0.15623081,299.7360,04/23.0/2023,2000,g 13.5,4.0
# From MPEC 2020-C98
317P/WISE,e,11.9554,275.4785,334.8259,2.962170,0.1933255,0.57067442,181.5740,04/23.0/2023,2000,g 17.5,4.0
# From MPC102103
318P/McNaught-Hartley,e,17.8893,35.5022,313.3480,7.506005,0.0479282,0.67492031,131.1218,04/23.0/2023,2000,g  8.5,6.0
# From MPC 97499
319P/Catalina-McNaught,e,15.0955,111.3614,203.6580,3.564709,0.1464428,0.66650735,56.7653,04/23.0/2023,2000,g 15.0,4.0
# From MPC 96281
320P/McNaught,e,4.9045,295.9488,0.7838,3.094452,0.1810625,0.68514746,149.5937,04/23.0/2023,2000,g 20.5,4.0
# From MPC105243
321P/SOHO,e,20.0794,165.0180,172.7452,2.423058,0.2613114,0.98107188,0.0000,10/26.6064/2023,2000,g 20.0,4.0
# From MPC102103
322P/SOHO,e,11.4647,351.4934,56.9200,2.507376,0.2482417,0.97997773,0.0000,08/21.0864/2023,2000,g 19.0,4.0
# From MPEC 2016-Y36
323P/SOHO,e,5.3161,324.4128,353.0286,2.583317,0.2373764,0.98473273,0.0000,03/14.4381/2025,2000,g 20.0,4.0
# From MPEC 2021-W31
324P/LaSagra,e,21.4025,270.5846,57.5459,3.094746,0.1810367,0.15358297,129.9792,04/23.0/2023,2000,g 13.0,4.0
# From MPEC 2022-TA0
325P/Yang-Gao,e,16.6997,257.4475,343.9208,3.528292,0.1487159,0.59356241,57.9507,04/23.0/2023,2000,g 14.0,4.0
# From MPC103849
326P/Hill,e,2.4711,99.8084,278.6511,4.063095,0.1203424,0.31837029,329.7335,04/23.0/2023,2000,g 13.5,4.0
# From MPEC 2023-B57
327P/VanNess,e,36.2504,173.9838,185.0184,3.561859,0.1466186,0.56313788,34.1093,04/23.0/2023,2000,g 16.0,4.0
# From MPC109148
328P/LONEOS-Tucker,e,17.6722,341.6204,30.6014,4.190126,0.1149115,0.55273352,306.9210,04/23.0/2023,2000,g 14.5,4.0
# From MPC101101
329P/LINEAR-Catalina,e,21.7102,87.6542,343.5555,5.187576,0.0834175,0.67834115,225.1402,04/23.0/2023,2000,g 13.5,4.0
# From MPEC 2022-K19
330P/Catalina,e,15.7140,293.0810,188.8423,6.620782,0.0578549,0.54906536,140.6454,04/23.0/2023,2000,g 12.0,4.0
# From MPEC 2022-C56
331P/Gibbs,e,9.7398,216.7517,184.5945,3.005209,0.1891874,0.04131030,176.1342,04/23.0/2023,2000,g 12.0,4.0
# From MPEC 2016-K18
332P/Ikeya-Murakami,e,9.3803,3.7824,152.2957,3.087487,0.1816755,0.48930433,111.3165,04/23.0/2023,2000,g 18.0,4.0
# From MPEC 2016-EI8
